
# Worst residual: 10.16 km
# MJD 59832.000000 (2022 Sep 10  0:00)
1969-046F = NORAD 03956 = Vela booster
1 03956U 69046F   22253.49919926  .00000000  00000-0  00000-0 0 14526
2 03956 016.7512 349.5573 8143405 281.8544 003.8572 00.46225477    02

# Worst residual: 1.77 km
# MJD 59833.000000 (2022 Sep 11  0:00)
1969-046F = NORAD 03956 = Vela booster
1 03956U 69046F   22254.49919926  .00000000  00000-0  00000-0 0 14527
2 03956 016.7459 349.5849 8145761 281.8474 170.1453 00.46207489    06

# Worst residual: 7.37 km
# MJD 59834.000000 (2022 Sep 12  0:00)
1969-046F = NORAD 03956 = Vela booster
1 03956U 69046F   22255.49919926  .00000000  00000-0  00000-0 0 14528
2 03956 016.7432 349.6220 8142009 281.8264 336.4084 00.46206396    03

# Worst residual: 4.15 km
# MJD 59835.000000 (2022 Sep 13  0:00)
1969-046F = NORAD 03956 = Vela booster
1 03956U 69046F   22256.49919926  .00000000  00000-0  00000-0 0 14529
2 03956 016.7383 349.6447 8145363 281.8131 142.6739 00.46205504    02

# Worst residual: 4.93 km
# MJD 59836.000000 (2022 Sep 14  0:00)
1969-046F = NORAD 03956 = Vela booster
1 03956U 69046F   22257.49919926  .00000000  00000-0  00000-0 0 14520
2 03956 016.7352 349.6808 8144756 281.7843 309.0251 00.46192019    07

# Worst residual: 7.74 km
# MJD 59837.000000 (2022 Sep 15  0:00)
1969-046F = NORAD 03956 = Vela booster
1 03956U 69046F   22258.49919926  .00000000  00000-0  00000-0 0 14521
2 03956 016.7335 349.7033 8146542 281.7875 115.2515 00.46187261    02

# Worst residual: 11.17 km
# MJD 59838.000000 (2022 Sep 16  0:00)
1969-046F = NORAD 03956 = Vela booster
1 03956U 69046F   22259.49919926  .00000000  00000-0  00000-0 0 14522
2 03956 016.7271 349.7842 8150065 281.7263 281.5304 00.46192127    05

# Worst residual: 7.39 km
# MJD 59839.000000 (2022 Sep 17  0:00)
1969-046F = NORAD 03956 = Vela booster
1 03956U 69046F   22260.49919926  .00000000  00000-0  00000-0 0 14524
2 03956 016.7264 349.8016 8150761 281.7581 087.7730 00.46180909    01

# Worst residual: 2.63 km
# MJD 59840.000000 (2022 Sep 18  0:00)
1969-046F = NORAD 03956 = Vela booster
1 03956U 69046F   22261.49919926  .00000000  00000-0  00000-0 0 14525
2 03956 016.7178 349.9446 8152064 281.6510 253.9487 00.46185460    05

# Worst residual: 10.95 km
# MJD 59841.000000 (2022 Sep 19  0:00)
1969-046F = NORAD 03956 = Vela booster
1 03956U 69046F   22262.49919926  .00000000  00000-0  00000-0 0 14526
2 03956 016.7123 349.9771 8153011 281.6659 060.1929 00.46186437    07

# Worst residual: 4.91 km
# MJD 59842.000000 (2022 Sep 20  0:00)
1969-046F = NORAD 03956 = Vela booster
1 03956U 69046F   22263.49919926  .00000000  00000-0  00000-0 0 14527
2 03956 016.7062 350.0845 8150506 281.5895 226.4604 00.46186991    03

# Worst residual: 9.30 km
# MJD 59843.000000 (2022 Sep 21  0:00)
1969-046F = NORAD 03956 = Vela booster
1 03956U 69046F   22264.49919926  .00000000  00000-0  00000-0 0 14528
2 03956 016.6977 350.1480 8149051 281.5565 032.6742 00.46190203    01

# Worst residual: 2.42 km
# MJD 59844.000000 (2022 Sep 22  0:00)
1969-046F = NORAD 03956 = Vela booster
1 03956U 69046F   22265.49919926  .00000000  00000-0  00000-0 0 14529
2 03956 016.6928 350.1752 8148936 281.5438 199.0182 00.46203995    08

# Worst residual: 6.82 km
# MJD 59845.000000 (2022 Sep 23  0:00)
1969-046F = NORAD 03956 = Vela booster
1 03956U 69046F   22266.49919926  .00000000  00000-0  00000-0 0 14520
2 03956 016.6876 350.2223 8145285 281.5096 005.2715 00.46207337    02

# Worst residual: 4.43 km
# MJD 59846.000000 (2022 Sep 24  0:00)
1969-046F = NORAD 03956 = Vela booster
1 03956U 69046F   22267.49919926  .00000000  00000-0  00000-0 0 14521
2 03956 016.6823 350.2319 8148318 281.5109 171.5667 00.46207417    07

# Worst residual: 10.09 km
# MJD 59847.000000 (2022 Sep 25  0:00)
1969-046F = NORAD 03956 = Vela booster
1 03956U 69046F   22268.49919926  .00000000  00000-0  00000-0 0 14522
2 03956 016.6810 350.2539 8146492 281.5058 337.8566 00.46214150    08

# Worst residual: 4.38 km
# MJD 59848.000000 (2022 Sep 26  0:00)
1969-046F = NORAD 03956 = Vela booster
1 03956U 69046F   22269.49919926  .00000000  00000-0  00000-0 0 14523
2 03956 016.6759 350.2743 8149720 281.5023 144.1092 00.46200485    05

# Worst residual: 10.24 km
# MJD 59849.000000 (2022 Sep 27  0:00)
1969-046F = NORAD 03956 = Vela booster
1 03956U 69046F   22270.49919926  .00000000  00000-0  00000-0 0 14525
2 03956 016.6727 350.3108 8149643 281.4905 310.3805 00.46203254    04

# Worst residual: 7.42 km
# MJD 59850.000000 (2022 Sep 28  0:00)
1969-046F = NORAD 03956 = Vela booster
1 03956U 69046F   22271.49919926  .00000000  00000-0  00000-0 0 14526
2 03956 016.6699 350.3267 8151421 281.5000 116.6415 00.46200311    07

# Worst residual: 7.44 km
# MJD 59851.000000 (2022 Sep 29  0:00)
1969-046F = NORAD 03956 = Vela booster
1 03956U 69046F   22272.49919926  .00000000  00000-0  00000-0 0 14527
2 03956 016.6652 350.3816 8150222 281.4691 282.8902 00.46187104    00

# Worst residual: 5.11 km
# MJD 59852.000000 (2022 Sep 30  0:00)
1969-046F = NORAD 03956 = Vela booster
1 03956U 69046F   22273.49919926  .00000000  00000-0  00000-0 0 14528
2 03956 016.6636 350.3804 8150756 281.5063 089.1465 00.46196906    07

# Worst residual: 6.78 km
# MJD 59853.000000 (2022 Oct  1  0:00)
1969-046F = NORAD 03956 = Vela booster
1 03956U 69046F   22274.49919926  .00000000  00000-0  00000-0 0 14529
2 03956 016.6606 350.4144 8149952 281.4936 255.4032 00.46188304    07

# Worst residual: 7.31 km
# MJD 59854.000000 (2022 Oct  2  0:00)
1969-046F = NORAD 03956 = Vela booster
1 03956U 69046F   22275.49919926  .00000000  00000-0  00000-0 0 14520
2 03956 016.6599 350.4228 8150422 281.5212 061.6517 00.46183325    06

# Worst residual: 0.96 km
# MJD 59855.000000 (2022 Oct  3  0:00)
1969-046F = NORAD 03956 = Vela booster
1 03956U 69046F   22276.49919926  .00000000  00000-0  00000-0 0 14521
2 03956 016.6569 350.4248 8151501 281.5347 227.9311 00.46195221    00

# Worst residual: 9.51 km
# MJD 59856.000000 (2022 Oct  4  0:00)
1969-046F = NORAD 03956 = Vela booster
1 03956U 69046F   22277.49919926  .00000000  00000-0  00000-0 0 14522
2 03956 016.6574 350.4342 8151498 281.5543 034.1896 00.46190411    06

# Worst residual: 3.54 km
# MJD 59857.000000 (2022 Oct  5  0:00)
1969-046F = NORAD 03956 = Vela booster
1 03956U 69046F   22278.49919926  .00000000  00000-0  00000-0 0 14523
2 03956 016.6531 350.4496 8152732 281.5631 200.4495 00.46195613    01

# Worst residual: 7.05 km
# MJD 59858.000000 (2022 Oct  6  0:00)
1969-046F = NORAD 03956 = Vela booster
1 03956U 69046F   22279.49919926  .00000000  00000-0  00000-0 0 14524
2 03956 016.6521 350.4699 8150978 281.5738 006.6787 00.46221073    03

# Worst residual: 1.55 km
# MJD 59859.000000 (2022 Oct  7  0:00)
1969-046F = NORAD 03956 = Vela booster
1 03956U 69046F   22280.49919926  .00000000  00000-0  00000-0 0 14526
2 03956 016.6471 350.5018 8152734 281.5711 172.9432 00.46201041    03
